{
  "norad_id": 64301,
  "name": "STARLINK-34372",
  "history": [
    {
      "epoch": "2026-03-28T21:21:08.215488Z",
      "apogee_km": 575.813162256266,
      "perigee_km": 569.6027213176785,
      "latitude_deg": -2.7171421679286718e-05,
      "longitude_deg": -0.5013840195775061,
      "height_km": 575.2310619068456,
      "semi_major_axis_km": 6950.844941786972,
      "eccentricity": 0.00044674,
      "inclination_deg": 70.0069,
      "raan_deg": 146.0865,
      "arg_perigee_deg": 268.2637,
      "mean_anomaly_deg": 91.801,
      "mean_motion_rev_day": 14.9811917
    },
    {
      "epoch": "2026-03-29T05:21:42.301728Z",
      "apogee_km": 574.1118553863098,
      "perigee_km": 569.9320297982349,
      "latitude_deg": -4.4444209672452486e-05,
      "longitude_deg": -121.81545338174911,
      "height_km": 574.4346081003278,
      "semi_major_axis_km": 6950.158942592272,
      "eccentricity": 0.0003007,
      "inclination_deg": 70.0027,
      "raan_deg": 145.2434,
      "arg_perigee_deg": 270.4113,
      "mean_anomaly_deg": 89.6701,
      "mean_motion_rev_day": 14.98340978
    },
    {
      "epoch": "2026-03-30T03:47:34.714752Z",
      "apogee_km": 573.8960404674681,
      "perigee_km": 570.1499042423693,
      "latitude_deg": -3.839709268565543e-05,
      "longitude_deg": -101.56315592639062,
      "height_km": 574.512095506294,
      "semi_major_axis_km": 6950.159972354919,
      "eccentricity": 0.0002695,
      "inclination_deg": 70.0036,
      "raan_deg": 142.8853,
      "arg_perigee_deg": 268.1124,
      "mean_anomaly_deg": 91.9726,
      "mean_motion_rev_day": 14.98340645
    },
    {
      "epoch": "2026-03-30T05:23:41.738496Z",
      "apogee_km": 573.6438113197119,
      "perigee_km": 570.2517529409461,
      "latitude_deg": -3.140335713096514e-05,
      "longitude_deg": -125.8255087089945,
      "height_km": 574.236382551848,
      "semi_major_axis_km": 6950.084782130329,
      "eccentricity": 0.00024403,
      "inclination_deg": 70.0046,
      "raan_deg": 142.718,
      "arg_perigee_deg": 274.6881,
      "mean_anomaly_deg": 85.3999,
      "mean_motion_rev_day": 14.9836496
    },
    {
      "epoch": "2026-03-30T13:24:22.720320Z",
      "apogee_km": 574.1404637909372,
      "perigee_km": 569.8705742329566,
      "latitude_deg": -3.9322228494874545e-05,
      "longitude_deg": 112.83411536601356,
      "height_km": 573.7675782825313,
      "semi_major_axis_km": 6950.142519011946,
      "eccentricity": 0.00030718,
      "inclination_deg": 70.0023,
      "raan_deg": 141.8774,
      "arg_perigee_deg": 288.16,
      "mean_anomaly_deg": 71.9224,
      "mean_motion_rev_day": 14.98346289
    },
    {
      "epoch": "2026-03-31T10:14:07.971360Z",
      "apogee_km": 574.2027664559846,
      "perigee_km": 569.8779490933357,
      "latitude_deg": 4.4297508039744164e-05,
      "longitude_deg": 157.35207439763676,
      "height_km": 574.4920159369258,
      "semi_major_axis_km": 6950.17735777466,
      "eccentricity": 0.00031113,
      "inclination_deg": 70.0019,
      "raan_deg": 139.6893,
      "arg_perigee_deg": 269.3653,
      "mean_anomaly_deg": 90.715,
      "mean_motion_rev_day": 14.98335023
    },
    {
      "epoch": "2026-03-31T13:26:24.023328Z",
      "apogee_km": 574.1981175226438,
      "perigee_km": 569.8542655279398,
      "latitude_deg": 3.880084643136925e-07,
      "longitude_deg": 108.81697304232627,
      "height_km": 574.4910869412655,
      "semi_major_axis_km": 6950.163191525292,
      "eccentricity": 0.0003125,
      "inclination_deg": 70.0017,
      "raan_deg": 139.3527,
      "arg_perigee_deg": 269.0191,
      "mean_anomaly_deg": 91.061,
      "mean_motion_rev_day": 14.98339604
    },
    {
      "epoch": "2026-04-01T19:52:57.292896Z",
      "apogee_km": 574.1851729633354,
      "perigee_km": 569.9038611488295,
      "latitude_deg": -8.774693340489135e-06,
      "longitude_deg": 7.7296160397529246,
      "height_km": 574.4833917815475,
      "semi_major_axis_km": 6950.181517056082,
      "eccentricity": 0.000308,
      "inclination_deg": 70.0013,
      "raan_deg": 136.1542,
      "arg_perigee_deg": 269.6991,
      "mean_anomaly_deg": 90.3815,
      "mean_motion_rev_day": 14.98333678
    },
    {
      "epoch": "2026-04-02T19:54:59.181696Z",
      "apogee_km": 574.2058162487892,
      "perigee_km": 569.917543663255,
      "latitude_deg": -2.672347334839558e-06,
      "longitude_deg": 3.709713564205295,
      "height_km": 574.6025769688304,
      "semi_major_axis_km": 6950.198679956022,
      "eccentricity": 0.0003085,
      "inclination_deg": 70.0011,
      "raan_deg": 133.6292,
      "arg_perigee_deg": 266.9718,
      "mean_anomaly_deg": 93.1088,
      "mean_motion_rev_day": 14.98328128
    },
    {
      "epoch": "2026-04-02T19:54:59.182560Z",
      "apogee_km": 574.2056077428279,
      "perigee_km": 569.9177521692163,
      "latitude_deg": 8.864388965377655e-05,
      "longitude_deg": 3.709743007255354,
      "height_km": 574.60255368174,
      "semi_major_axis_km": 6950.198679956022,
      "eccentricity": 0.00030847,
      "inclination_deg": 70.0011,
      "raan_deg": 133.6292,
      "arg_perigee_deg": 266.9719,
      "mean_anomaly_deg": 93.1088,
      "mean_motion_rev_day": 14.98328128
    },
    {
      "epoch": "2026-04-03T11:56:20.319360Z",
      "apogee_km": 574.4118814311751,
      "perigee_km": 569.7086829303225,
      "latitude_deg": -3.5885788671309e-05,
      "longitude_deg": 121.02980575944021,
      "height_km": 574.6604741229671,
      "semi_major_axis_km": 6950.1972821807485,
      "eccentricity": 0.00033835,
      "inclination_deg": 70.0004,
      "raan_deg": 131.9454,
      "arg_perigee_deg": 265.7977,
      "mean_anomaly_deg": 94.2795,
      "mean_motion_rev_day": 14.9832858
    },
    {
      "epoch": "2026-04-04T11:58:21.252576Z",
      "apogee_km": 574.367158916315,
      "perigee_km": 569.7059555184314,
      "latitude_deg": 3.607998724116778e-06,
      "longitude_deg": 117.01420656923165,
      "height_km": 574.6450984101936,
      "semi_major_axis_km": 6950.173557217373,
      "eccentricity": 0.00033533,
      "inclination_deg": 70.0006,
      "raan_deg": 129.4207,
      "arg_perigee_deg": 265.5537,
      "mean_anomaly_deg": 94.5239,
      "mean_motion_rev_day": 14.98336252
    },
    {
      "epoch": "2026-04-05T12:00:22.058784Z",
      "apogee_km": 574.289100827792,
      "perigee_km": 569.7345293063036,
      "latitude_deg": 4.532621160864708e-05,
      "longitude_deg": 112.99933797253983,
      "height_km": 574.6690485246406,
      "semi_major_axis_km": 6950.1488150670475,
      "eccentricity": 0.00032766,
      "inclination_deg": 70.0006,
      "raan_deg": 126.8962,
      "arg_perigee_deg": 264.2176,
      "mean_anomaly_deg": 95.861,
      "mean_motion_rev_day": 14.98344253
    },
    {
      "epoch": "2026-04-06T05:37:50.017152Z",
      "apogee_km": 574.255949175661,
      "perigee_km": 569.696952756366,
      "latitude_deg": 1.624717897347576e-06,
      "longitude_deg": -153.9427822622639,
      "height_km": 574.6781439504776,
      "semi_major_axis_km": 6950.113450966013,
      "eccentricity": 0.00032798,
      "inclination_deg": 70.0007,
      "raan_deg": 125.0444,
      "arg_perigee_deg": 263.0995,
      "mean_anomaly_deg": 96.9791,
      "mean_motion_rev_day": 14.98355689
    },
    {
      "epoch": "2026-04-07T04:03:41.598144Z",
      "apogee_km": 574.2869642477963,
      "perigee_km": 569.6645832442318,
      "latitude_deg": 1.2474125011385939e-05,
      "longitude_deg": -133.68550974998757,
      "height_km": 574.5587533977653,
      "semi_major_axis_km": 6950.112773746014,
      "eccentricity": 0.00033254,
      "inclination_deg": 70.0009,
      "raan_deg": 122.6878,
      "arg_perigee_deg": 266.152,
      "mean_anomaly_deg": 93.9259,
      "mean_motion_rev_day": 14.98355908
    },
    {
      "epoch": "2026-04-07T18:28:53.672160Z",
      "apogee_km": 574.3537354171776,
      "perigee_km": 569.6373754650549,
      "latitude_deg": -5.9508433750331524e-05,
      "longitude_deg": 7.906944831984653,
      "height_km": 574.5279649844587,
      "semi_major_axis_km": 6950.132555441116,
      "eccentricity": 0.0003393,
      "inclination_deg": 70.0009,
      "raan_deg": 121.1728,
      "arg_perigee_deg": 267.4608,
      "mean_anomaly_deg": 92.6162,
      "mean_motion_rev_day": 14.98349511
    },
    {
      "epoch": "2026-04-08T10:30:14.662944Z",
      "apogee_km": 574.3750282933452,
      "perigee_km": 569.709095082072,
      "latitude_deg": 1.9668706376070364e-05,
      "longitude_deg": 125.22838927762197,
      "height_km": 574.5755415729391,
      "semi_major_axis_km": 6950.179061687709,
      "eccentricity": 0.00033567,
      "inclination_deg": 70.0006,
      "raan_deg": 119.4897,
      "arg_perigee_deg": 267.4051,
      "mean_anomaly_deg": 92.6724,
      "mean_motion_rev_day": 14.98334472
    },
    {
      "epoch": "2026-04-09T10:32:16.285632Z",
      "apogee_km": 574.2084895920443,
      "perigee_km": 569.9471738744123,
      "latitude_deg": -1.8112081177913867e-05,
      "longitude_deg": 121.21097894944329,
      "height_km": 574.6111718656801,
      "semi_major_axis_km": 6950.214831733228,
      "eccentricity": 0.00030656,
      "inclination_deg": 70.0019,
      "raan_deg": 116.9661,
      "arg_perigee_deg": 267.157,
      "mean_anomaly_deg": 92.9238,
      "mean_motion_rev_day": 14.98322905
    },
    {
      "epoch": "2026-04-10T10:34:17.605920Z",
      "apogee_km": 574.3098168450069,
      "perigee_km": 569.8019217499805,
      "latitude_deg": 3.038041510374605e-05,
      "longitude_deg": 117.19296362953368,
      "height_km": 574.5674555881768,
      "semi_major_axis_km": 6950.192869297493,
      "eccentricity": 0.0003243,
      "inclination_deg": 70.0009,
      "raan_deg": 114.4406,
      "arg_perigee_deg": 267.8687,
      "mean_anomaly_deg": 92.2101,
      "mean_motion_rev_day": 14.98330007
    }
  ]
}